{
  "norad_id": 45374,
  "name": "STARLINK-1300",
  "history": [
    {
      "epoch": "2026-03-28T16:48:13.824864Z",
      "apogee_km": 476.2371787502443,
      "perigee_km": 474.2041987254561,
      "latitude_deg": 2.3944929504145324e-05,
      "longitude_deg": -1.1818308060952358,
      "height_km": 476.1214283638304,
      "semi_major_axis_km": 6853.3576887378495,
      "eccentricity": 0.00014832,
      "inclination_deg": 53.1616,
      "raan_deg": 76.9926,
      "arg_perigee_deg": 90.1574,
      "mean_anomaly_deg": 269.9597,
      "mean_motion_rev_day": 15.30198118
    },
    {
      "epoch": "2026-03-29T05:20:38.629248Z",
      "apogee_km": 476.193023014408,
      "perigee_km": 474.17540524896685,
      "latitude_deg": -1.6528618251701897e-05,
      "longitude_deg": 167.77157876069646,
      "height_km": 476.24673111102953,
      "semi_major_axis_km": 6853.321214131687,
      "eccentricity": 0.0001472,
      "inclination_deg": 53.1613,
      "raan_deg": 74.5644,
      "arg_perigee_deg": 99.3877,
      "mean_anomaly_deg": 260.729,
      "mean_motion_rev_day": 15.30210334
    },
    {
      "epoch": "2026-03-30T04:51:27.811872Z",
      "apogee_km": 476.2615656853959,
      "perigee_km": 474.2809307016687,
      "latitude_deg": -1.4844431071440386e-05,
      "longitude_deg": 169.55068126611334,
      "height_km": 476.20957227266564,
      "semi_major_axis_km": 6853.408248193532,
      "eccentricity": 0.0001445,
      "inclination_deg": 53.1611,
      "raan_deg": 70.0141,
      "arg_perigee_deg": 92.3367,
      "mean_anomaly_deg": 267.7799,
      "mean_motion_rev_day": 15.30181185
    },
    {
      "epoch": "2026-03-30T04:51:27.812736Z",
      "apogee_km": 476.26177128764357,
      "perigee_km": 474.28072509942103,
      "latitude_deg": -1.7610565743358613e-05,
      "longitude_deg": 169.55067559545645,
      "height_km": 476.2095806554113,
      "semi_major_axis_km": 6853.408248193532,
      "eccentricity": 0.00014453,
      "inclination_deg": 53.1611,
      "raan_deg": 70.0141,
      "arg_perigee_deg": 92.3367,
      "mean_anomaly_deg": 267.7799,
      "mean_motion_rev_day": 15.30181185
    },
    {
      "epoch": "2026-03-31T05:56:18.072960Z",
      "apogee_km": 476.12764474526284,
      "perigee_km": 474.28957745236585,
      "latitude_deg": 5.998526344376931e-06,
      "longitude_deg": 147.45715206849218,
      "height_km": 476.1814348956905,
      "semi_major_axis_km": 6853.3456110988145,
      "eccentricity": 0.0001341,
      "inclination_deg": 53.1619,
      "raan_deg": 65.16,
      "arg_perigee_deg": 94.6583,
      "mean_anomaly_deg": 265.4571,
      "mean_motion_rev_day": 15.30202163
    },
    {
      "epoch": "2026-04-01T05:27:07.303968Z",
      "apogee_km": 476.11508789629806,
      "perigee_km": 474.42777874001604,
      "latitude_deg": 3.5556393309831952e-06,
      "longitude_deg": 149.2338500550845,
      "height_km": 476.39038211477526,
      "semi_major_axis_km": 6853.408433318157,
      "eccentricity": 0.0001231,
      "inclination_deg": 53.1622,
      "raan_deg": 60.6075,
      "arg_perigee_deg": 105.1536,
      "mean_anomaly_deg": 254.9601,
      "mean_motion_rev_day": 15.30181123
    },
    {
      "epoch": "2026-04-02T14:22:14.632608Z",
      "apogee_km": 476.13868037403427,
      "perigee_km": 474.3239084496736,
      "latitude_deg": 2.6185803960263743e-05,
      "longitude_deg": 7.732409216562834,
      "height_km": 476.0388592788991,
      "semi_major_axis_km": 6853.368294411854,
      "eccentricity": 0.0001324,
      "inclination_deg": 53.1615,
      "raan_deg": 54.2385,
      "arg_perigee_deg": 84.2695,
      "mean_anomaly_deg": 275.8457,
      "mean_motion_rev_day": 15.30194566
    },
    {
      "epoch": "2026-04-03T20:09:14.319648Z",
      "apogee_km": 476.1351803784628,
      "perigee_km": 474.1778797462757,
      "latitude_deg": -7.127154067655678e-06,
      "longitude_deg": -86.00346585143468,
      "height_km": 475.99766473636976,
      "semi_major_axis_km": 6853.2935300623685,
      "eccentricity": 0.0001428,
      "inclination_deg": 53.1611,
      "raan_deg": 48.4745,
      "arg_perigee_deg": 86.6696,
      "mean_anomaly_deg": 273.4468,
      "mean_motion_rev_day": 15.30219606
    },
    {
      "epoch": "2026-04-04T05:33:33.713280Z",
      "apogee_km": 475.98992816913506,
      "perigee_km": 474.46313584147447,
      "latitude_deg": -5.3898912215753664e-05,
      "longitude_deg": 130.7068267463283,
      "height_km": 475.8820115027846,
      "semi_major_axis_km": 6853.3635320053045,
      "eccentricity": 0.00011139,
      "inclination_deg": 53.1605,
      "raan_deg": 46.6519,
      "arg_perigee_deg": 71.4429,
      "mean_anomaly_deg": 288.6692,
      "mean_motion_rev_day": 15.30196161
    },
    {
      "epoch": "2026-04-05T12:54:36.568800Z",
      "apogee_km": 475.89134685111003,
      "perigee_km": 474.45023328901334,
      "latitude_deg": -4.529847256906697e-05,
      "longitude_deg": 13.0902021332222,
      "height_km": 475.8022759053257,
      "semi_major_axis_km": 6853.307790070061,
      "eccentricity": 0.00010514,
      "inclination_deg": 53.16,
      "raan_deg": 40.5847,
      "arg_perigee_deg": 68.2504,
      "mean_anomaly_deg": 291.8608,
      "mean_motion_rev_day": 15.3021483
    },
    {
      "epoch": "2026-04-05T20:44:52.857888Z",
      "apogee_km": 476.2614182216166,
      "perigee_km": 474.187591030317,
      "latitude_deg": -1.3834430694418711e-05,
      "longitude_deg": -106.31303560306799,
      "height_km": 476.2781481877979,
      "semi_major_axis_km": 6853.3615046259665,
      "eccentricity": 0.0001513,
      "inclination_deg": 53.1603,
      "raan_deg": 39.0712,
      "arg_perigee_deg": 98.6445,
      "mean_anomaly_deg": 261.4727,
      "mean_motion_rev_day": 15.3019684
    },
    {
      "epoch": "2026-04-06T01:27:02.589696Z",
      "apogee_km": 475.99548216720905,
      "perigee_km": 474.4849978235143,
      "latitude_deg": 9.05734396041973e-06,
      "longitude_deg": -177.95790130153526,
      "height_km": 476.1084918999368,
      "semi_major_axis_km": 6853.377239995361,
      "eccentricity": 0.0001102,
      "inclination_deg": 53.1599,
      "raan_deg": 38.16,
      "arg_perigee_deg": 87.7206,
      "mean_anomaly_deg": 272.3921,
      "mean_motion_rev_day": 15.3019157
    },
    {
      "epoch": "2026-04-07T02:31:54.142464Z",
      "apogee_km": 475.9690370713033,
      "perigee_km": 474.45335058475666,
      "latitude_deg": -3.28465407703992e-05,
      "longitude_deg": 159.94362210783729,
      "height_km": 476.0928542921061,
      "semi_major_axis_km": 6853.348193828029,
      "eccentricity": 0.00011058,
      "inclination_deg": 53.1605,
      "raan_deg": 33.3064,
      "arg_perigee_deg": 88.7375,
      "mean_anomaly_deg": 271.3752,
      "mean_motion_rev_day": 15.30201298
    },
    {
      "epoch": "2026-04-07T19:46:28.013376Z",
      "apogee_km": 475.84909222105216,
      "perigee_km": 474.3838666271504,
      "latitude_deg": -9.843525135150542e-06,
      "longitude_deg": -102.74402590908159,
      "height_km": 475.984111960399,
      "semi_major_axis_km": 6853.253479424101,
      "eccentricity": 0.0001069,
      "inclination_deg": 53.1604,
      "raan_deg": 29.968,
      "arg_perigee_deg": 87.5925,
      "mean_anomaly_deg": 272.5198,
      "mean_motion_rev_day": 15.3023302
    },
    {
      "epoch": "2026-04-08T05:10:45.806016Z",
      "apogee_km": 475.8265245698203,
      "perigee_km": 474.2552279463507,
      "latitude_deg": -4.2575127527534246e-05,
      "longitude_deg": 113.9770652635824,
      "height_km": 476.0156421886979,
      "semi_major_axis_km": 6853.177876258085,
      "eccentricity": 0.00011464,
      "inclination_deg": 53.1613,
      "raan_deg": 28.1495,
      "arg_perigee_deg": 95.5767,
      "mean_anomaly_deg": 264.5364,
      "mean_motion_rev_day": 15.30258342
    },
    {
      "epoch": "2026-04-09T04:41:27.489984Z",
      "apogee_km": 475.52275553250183,
      "perigee_km": 474.0684261780707,
      "latitude_deg": 8.825225228448794e-06,
      "longitude_deg": 115.7867311331824,
      "height_km": 475.7609551297442,
      "semi_major_axis_km": 6852.932590855286,
      "eccentricity": 0.00010611,
      "inclination_deg": 53.161,
      "raan_deg": 23.5984,
      "arg_perigee_deg": 95.274,
      "mean_anomaly_deg": 264.8382,
      "mean_motion_rev_day": 15.30340501
    },
    {
      "epoch": "2026-04-10T12:02:14.835840Z",
      "apogee_km": 475.12846698091107,
      "perigee_km": 473.65791400203034,
      "latitude_deg": -2.7578323818321223e-05,
      "longitude_deg": -1.7667283169058174,
      "height_km": 475.46685276874905,
      "semi_major_axis_km": 6852.53019049147,
      "eccentricity": 0.0001073,
      "inclination_deg": 53.1623,
      "raan_deg": 17.5296,
      "arg_perigee_deg": 103.7627,
      "mean_anomaly_deg": 256.3493,
      "mean_motion_rev_day": 15.30475302
    },
    {
      "epoch": "2026-04-11T11:32:44.657952Z",
      "apogee_km": 474.917633039011,
      "perigee_km": 473.341611715864,
      "latitude_deg": -7.638913253062832e-06,
      "longitude_deg": 0.09167488516935736,
      "height_km": 475.257019835803,
      "semi_major_axis_km": 6852.266622377437,
      "eccentricity": 0.000115,
      "inclination_deg": 53.1633,
      "raan_deg": 12.9777,
      "arg_perigee_deg": 106.8637,
      "mean_anomaly_deg": 253.249,
      "mean_motion_rev_day": 15.30563606
    },
    {
      "epoch": "2026-04-13T02:43:25.057344Z",
      "apogee_km": 474.51956495262493,
      "perigee_km": 473.122998815611,
      "latitude_deg": 9.53703726825187e-06,
      "longitude_deg": 123.22727691252764,
      "height_km": 474.957194700545,
      "semi_major_axis_km": 6851.958281884118,
      "eccentricity": 0.00010191,
      "inclination_deg": 53.1632,
      "raan_deg": 5.3906,
      "arg_perigee_deg": 109.8316,
      "mean_anomaly_deg": 250.2795,
      "mean_motion_rev_day": 15.30666921
    }
  ]
}